[{"OBJECT_NAME":"GNOMES-4","OBJECT_ID":"2023-185A","EPOCH":"2026-03-09T23:48:26.932032","MEAN_MOTION":15.00198915,"ECCENTRICITY":0.000923,"INCLINATION":97.5118,"RA_OF_ASC_NODE":129.6992,"ARG_OF_PERICENTER":282.2655,"MEAN_ANOMALY":77.7535,"EPHEMERIS_TYPE":0,"CLASSIFICATION_TYPE":"U","NORAD_CAT_ID":58462,"ELEMENT_SET_NO":999,"REV_AT_EPOCH":12441,"BSTAR":0.00042532845,"MEAN_MOTION_DOT":5.265e-5,"MEAN_MOTION_DDOT":0},{"OBJECT_NAME":"STARLINK-34061","OBJECT_ID":"2025-094N","EPOCH":"2026-03-09T20:37:38.993376","MEAN_MOTION":14.98336916,"ECCENTRICITY":0.0003093,"INCLINATION":70.0018,"RA_OF_ASC_NODE":234.2253,"ARG_OF_PERICENTER":273.3985,"MEAN_ANOMALY":86.6821,"EPHEMERIS_TYPE":0,"CLASSIFICATION_TYPE":"U","NORAD_CAT_ID":63876,"ELEMENT_SET_NO":999,"REV_AT_EPOCH":4722,"BSTAR":0.00036145,"MEAN_MOTION_DOT":4.223e-5,"MEAN_MOTION_DDOT":0}]
